[{"OBJECT_NAME":"STARLINK-3626","OBJECT_ID":"2022-017AA","EPOCH":"2026-03-09T04:06:11.916864","MEAN_MOTION":15.08836378,"ECCENTRICITY":0.0001504,"INCLINATION":53.22,"RA_OF_ASC_NODE":351.4484,"ARG_OF_PERICENTER":79.5998,"MEAN_ANOMALY":280.5163,"EPHEMERIS_TYPE":0,"CLASSIFICATION_TYPE":"U","NORAD_CAT_ID":51792,"ELEMENT_SET_NO":999,"REV_AT_EPOCH":22389,"BSTAR":-1.4603933e-5,"MEAN_MOTION_DOT":-5.2e-6,"MEAN_MOTION_DDOT":0},{"OBJECT_NAME":"THOR ABLESTAR DEB","OBJECT_ID":"1961-015EX","EPOCH":"2026-03-09T22:58:31.837152","MEAN_MOTION":15.04262729,"ECCENTRICITY":0.00191468,"INCLINATION":67.4961,"RA_OF_ASC_NODE":12.7011,"ARG_OF_PERICENTER":32.2919,"MEAN_ANOMALY":327.9391,"EPHEMERIS_TYPE":0,"CLASSIFICATION_TYPE":"U","NORAD_CAT_ID":461,"ELEMENT_SET_NO":999,"REV_AT_EPOCH":37086,"BSTAR":0.0020469071,"MEAN_MOTION_DOT":0.00028661,"MEAN_MOTION_DDOT":0}]
